******** Week 105 almanac for PRN-19 ********
ID:                         19
Health:                     000
Eccentricity:               0.9185314178E-002
Time of Applicability(s):  503808.0000
Orbital Inclination(rad):   0.9809771186
Rate of Right Ascen(r/s):  -0.7897471819E-008
SQRT(A)  (m 1/2):           5153.583008
Right Ascen at Week(rad):   0.2644130099E+001
Argument of Perigee(rad):   1.810965062
Mean Anom(rad):            -0.9857848900E+000
Af0(s):                    -0.1239776611E-004
Af1(s/s):                   0.3637978807E-011
week:                        105

******** Week 105 almanac for PRN-20 ********
ID:                         20
Health:                     000
Eccentricity:               0.6029129028E-002
Time of Applicability(s):  503808.0000
Orbital Inclination(rad):   0.9374084689
Rate of Right Ascen(r/s):  -0.8034620388E-008
SQRT(A)  (m 1/2):           5151.644531
Right Ascen at Week(rad):  -0.1794645544E+001
Argument of Perigee(rad):   3.021017869
Mean Anom(rad):             0.3836730878E+000
Af0(s):                     0.5235671997E-003
Af1(s/s):                   0.0000000000E+000
week:                        105

******** Week 105 almanac for PRN-21 ********
ID:                         21
Health:                     000
Eccentricity:               0.2416229248E-001
Time of Applicability(s):  503808.0000
Orbital Inclination(rad):   0.9570446214
Rate of Right Ascen(r/s):  -0.7806039439E-008
SQRT(A)  (m 1/2):           5153.652344
Right Ascen at Week(rad):  -0.2770547568E+001
Argument of Perigee(rad):  -1.153671897
Mean Anom(rad):             0.2982937994E+001
Af0(s):                     0.1115798950E-003
Af1(s/s):                   0.3637978807E-011
week:                        105

******** Week 105 almanac for PRN-22 ********
ID:                         22
Health:                     000
Eccentricity:               0.7069587708E-002
Time of Applicability(s):  503808.0000
Orbital Inclination(rad):   0.9340828465
Rate of Right Ascen(r/s):  -0.8046049436E-008
SQRT(A)  (m 1/2):           5153.500000
Right Ascen at Week(rad):  -0.1748181955E+001
Argument of Perigee(rad):  -0.993922553
Mean Anom(rad):             0.1818882890E+001
Af0(s):                    -0.6361007690E-003
Af1(s/s):                   0.7275957614E-011
week:                        105

******** Week 105 almanac for PRN-23 ********
ID:                         23
Health:                     000
Eccentricity:               0.1102924347E-002
Time of Applicability(s):  503808.0000
Orbital Inclination(rad):   0.9634142370
Rate of Right Ascen(r/s):  -0.7794610391E-008
SQRT(A)  (m 1/2):           5153.597168
Right Ascen at Week(rad):  -0.1676274733E+001
Argument of Perigee(rad):   2.552299852
Mean Anom(rad):             0.2408776775E+000
Af0(s):                     0.1134872437E-003
Af1(s/s):                  -0.3637978807E-011
week:                        105

******** Week 105 almanac for PRN-24 ********
ID:                         24
Health:                     063
Eccentricity:               0.1103258133E-001
Time of Applicability(s):  503808.0000
Orbital Inclination(rad):   0.9356168273
Rate of Right Ascen(r/s):  -0.7966046104E-008
SQRT(A)  (m 1/2):           5153.683105
Right Ascen at Week(rad):   0.3748852804E+000
Argument of Perigee(rad):   0.738820724
Mean Anom(rad):             0.9767648882E+000
Af0(s):                     0.1049041748E-004
Af1(s/s):                   0.2546585165E-010
week:                        105

******** Week 105 almanac for PRN-25 ********
ID:                         25
Health:                     000
Eccentricity:               0.9928703308E-002
Time of Applicability(s):  503808.0000
Orbital Inclination(rad):   0.9612331081
Rate of Right Ascen(r/s):  -0.7954617056E-008
SQRT(A)  (m 1/2):           5153.594238
Right Ascen at Week(rad):   0.1489683722E+001
Argument of Perigee(rad):   0.964002438
Mean Anom(rad):            -0.1023921315E+001
Af0(s):                     0.1201629639E-003
Af1(s/s):                   0.7275957614E-011
week:                        105

******** Week 105 almanac for PRN-26 ********
ID:                         26
Health:                     000
Eccentricity:               0.5785942078E-002
Time of Applicability(s):  503808.0000
Orbital Inclination(rad):   0.9421961668
Rate of Right Ascen(r/s):  -0.8126052768E-008
SQRT(A)  (m 1/2):           5153.737305
Right Ascen at Week(rad):   0.1448342266E+001
Argument of Perigee(rad):   0.304502677
Mean Anom(rad):            -0.1712964438E+001
Af0(s):                     0.7343292236E-004
Af1(s/s):                   0.3637978807E-011
week:                        105

******** Week 105 almanac for PRN-27 ********
ID:                         27
Health:                     000
Eccentricity:               0.9373664856E-002
Time of Applicability(s):  503808.0000
Orbital Inclination(rad):   0.9762493419
Rate of Right Ascen(r/s):  -0.7977475151E-008
SQRT(A)  (m 1/2):           5153.632812
Right Ascen at Week(rad):   0.2538483165E+001
Argument of Perigee(rad):   0.606746327
Mean Anom(rad):             0.2788742618E+001
Af0(s):                    -0.1134872437E-003
Af1(s/s):                  -0.7275957614E-011
week:                        105

******** Week 105 almanac for PRN-28 ********
ID:                         28
Health:                     000
Eccentricity:               0.1747703552E-001
Time of Applicability(s):  503808.0000
Orbital Inclination(rad):   0.9730255854
Rate of Right Ascen(r/s):  -0.7874613724E-008
SQRT(A)  (m 1/2):           5154.267090
Right Ascen at Week(rad):   0.1585050064E+001
Argument of Perigee(rad):  -1.340715312
Mean Anom(rad):            -0.2774895969E+001
Af0(s):                     0.5855560303E-003
Af1(s/s):                  -0.7275957614E-011
week:                        105

******** Week 105 almanac for PRN-29 ********
ID:                         29
Health:                     000
Eccentricity:               0.1727581024E-002
Time of Applicability(s):  503808.0000
Orbital Inclination(rad):   0.9843027410
Rate of Right Ascen(r/s):  -0.7897471819E-008
SQRT(A)  (m 1/2):           5153.608887
Right Ascen at Week(rad):   0.2611313172E+001
Argument of Perigee(rad):   2.115537772
Mean Anom(rad):             0.2971754840E+001
Af0(s):                    -0.3309249878E-003
Af1(s/s):                  -0.7275957614E-011
week:                        105

******** Week 105 almanac for PRN-30 ********
ID:                         30
Health:                     000
Eccentricity:               0.5094528198E-002
Time of Applicability(s):  503808.0000
Orbital Inclination(rad):   0.9374324374
Rate of Right Ascen(r/s):  -0.7897471819E-008
SQRT(A)  (m 1/2):           5153.667480
Right Ascen at Week(rad):   0.4702261561E+000
Argument of Perigee(rad):  -2.811245247
Mean Anom(rad):            -0.9947243728E-001
Af0(s):                    -0.4138946533E-003
Af1(s/s):                  -0.3637978807E-011
week:                        105

******** Week 105 almanac for PRN-31 ********
ID:                         31
Health:                     000
Eccentricity:               0.9937286377E-002
Time of Applicability(s):  503808.0000
Orbital Inclination(rad):   0.9565352919
Rate of Right Ascen(r/s):  -0.7714607059E-008
SQRT(A)  (m 1/2):           5153.722168
Right Ascen at Week(rad):   0.4693374510E+000
Argument of Perigee(rad):   0.258379889
Mean Anom(rad):            -0.5182727863E+000
Af0(s):                    -0.1115798950E-003
Af1(s/s):                  -0.3637978807E-011
week:                        105

******** Week 105 almanac for PRN-32 ********
ID:                         32
Health:                     000
Eccentricity:               0.4860401154E-002
Time of Applicability(s):  503808.0000
Orbital Inclination(rad):   0.9572663296
Rate of Right Ascen(r/s):  -0.7920329914E-008
SQRT(A)  (m 1/2):           5153.600098
Right Ascen at Week(rad):  -0.6099869360E+000
Argument of Perigee(rad):  -2.386056183
Mean Anom(rad):            -0.2752232302E+001
Af0(s):                     0.2193450928E-004
Af1(s/s):                   0.0000000000E+000
week:                        105